[{"OBJECT_NAME":"STARLINK-36175","OBJECT_ID":"2025-293K","EPOCH":"2026-03-09T11:46:20.204832","MEAN_MOTION":14.98333042,"ECCENTRICITY":0.00028798,"INCLINATION":70.0001,"RA_OF_ASC_NODE":95.1336,"ARG_OF_PERICENTER":267.68,"MEAN_ANOMALY":92.403,"EPHEMERIS_TYPE":0,"CLASSIFICATION_TYPE":"U","NORAD_CAT_ID":67012,"ELEMENT_SET_NO":999,"REV_AT_EPOCH":1485,"BSTAR":0.0002615372,"MEAN_MOTION_DOT":3.029e-5,"MEAN_MOTION_DDOT":0},{"OBJECT_NAME":"CZ-4B DEB","OBJECT_ID":"2006-046E","EPOCH":"2026-03-09T15:05:34.126944","MEAN_MOTION":15.05038248,"ECCENTRICITY":0.0035443,"INCLINATION":97.6504,"RA_OF_ASC_NODE":126.4986,"ARG_OF_PERICENTER":210.976,"MEAN_ANOMALY":148.9377,"EPHEMERIS_TYPE":0,"CLASSIFICATION_TYPE":"U","NORAD_CAT_ID":29509,"ELEMENT_SET_NO":999,"REV_AT_EPOCH":5351,"BSTAR":0.00027248,"MEAN_MOTION_DOT":3.86e-5,"MEAN_MOTION_DDOT":0}]
